QIANFAN-97              
1 66039U 25233G   26017.06521752  .00000092  00000+0  12450-3 0  9998
2 66039  88.9928  58.4990 0001181  82.9935 277.1350 13.50951035 12787
QIANFAN-98              
1 66040U 25233H   26017.03191586  .00000111  00000+0  94272-4 0  9990
2 66040  88.9919  58.2932 0012713 295.6968  64.2886 13.79956704 12895
QIANFAN-99              
1 66041U 25233J   26017.15157941  .00000060  00000+0  73939-4 0  9991
2 66041  88.9923  58.4931 0006497 299.1585  60.8916 13.50956054 12790
QIANFAN-100             
1 66042U 25233K   26017.06928556  .00000039  00000+0  41620-4 0  9998
2 66042  88.9935  58.4116 0006629 300.5482  59.5015 13.50961340 12833
QIANFAN-101             
1 66043U 25233L   26017.22581871  .00000186  00000+0  71013-4 0  9994
2 66043  88.9925  57.9360 0012508 280.1409  79.8373 14.26694799 13101
QIANFAN-102             
1 66044U 25233M   26017.02774233  .00000091  00000+0  99630-4 0  9999
2 66044  88.9920  58.4390 0013003 298.0491  61.9352 13.63668419 12812
QIANFAN-103             
1 66045U 25233N   26017.09393259  .00000072  00000+0  92839-4 0  9995
2 66045  88.9930  58.5037 0009267 300.4464  59.5771 13.50990757 12781
QIANFAN-104             
1 66046U 25233P   26017.03159259  .00000104  00000+0  10405-3 0  9994
2 66046  88.9930  58.4247 0012223 301.7576  58.2395 13.70194582 12825
